[{"OBJECT_NAME":"STARLINK-5246","OBJECT_ID":"2022-141AT","EPOCH":"2026-03-09T23:28:38.960544","MEAN_MOTION":15.08844367,"ECCENTRICITY":0.0001246,"INCLINATION":53.2201,"RA_OF_ASC_NODE":352.6702,"ARG_OF_PERICENTER":87.9274,"MEAN_ANOMALY":272.1861,"EPHEMERIS_TYPE":0,"CLASSIFICATION_TYPE":"U","NORAD_CAT_ID":54198,"ELEMENT_SET_NO":999,"REV_AT_EPOCH":18604,"BSTAR":0.00025108637,"MEAN_MOTION_DOT":3.711e-5,"MEAN_MOTION_DDOT":0},{"OBJECT_NAME":"FENGYUN 1C DEB","OBJECT_ID":"1999-025BZZ","EPOCH":"2026-03-09T13:05:44.544480","MEAN_MOTION":14.97363263,"ECCENTRICITY":0.00745573,"INCLINATION":99.0712,"RA_OF_ASC_NODE":279.0573,"ARG_OF_PERICENTER":15.484,"MEAN_ANOMALY":344.8634,"EPHEMERIS_TYPE":0,"CLASSIFICATION_TYPE":"U","NORAD_CAT_ID":31619,"ELEMENT_SET_NO":999,"REV_AT_EPOCH":64782,"BSTAR":0.0036839182,"MEAN_MOTION_DOT":0.00045478,"MEAN_MOTION_DDOT":0}]
